{"type": "FeatureCollection", "features": [ {"type": "Feature", "properties": {"norad_id": 66455, "name": "ATLAS 5 CENTAUR R/B", "group": "last-30-days", "lat": 2.384627565731394, "lon": 89.13688595173727, "alt_km": 12755.93498987781, "timestamp": "2025-12-10T18:56:58.832014+00:00", "meta": {"OBJECT_NAME": "ATLAS 5 CENTAUR R/B", "OBJECT_ID": "2025-261B", "EPOCH": "2025-12-10T06:41:13.580160", "MEAN_MOTION": 2.28259697, "ECCENTRICITY": 0.23295009, "INCLINATION": 6.1488, "RA_OF_ASC_NODE": 291.8627, "ARG_OF_PERICENTER": 185.9895, "MEAN_ANOMALY": 282.35, "EPHEMERIS_TYPE": 0, "CLASSIFICATION_TYPE": "U", "NORAD_CAT_ID": 66455, "ELEMENT_SET_NO": 999, "REV_AT_EPOCH": 59, "BSTAR": 0, "MEAN_MOTION_DOT": -8e-07, "MEAN_MOTION_DDOT": 0}, "tle": {"line1": "1 66455U 25261B   25344.27862940 -.00000080  00000+0  00000+0 0  9995", "line2": "2 66455   6.1488 291.8627 2329500 185.9895 282.3500  2.28259697   590"}}, "geometry": {"type": "Point", "coordinates": [89.13688595173727, 2.384627565731394]}}, {"type": "Feature", "properties": {"norad_id": 66456, "name": "STARLINK-35643", "group": "last-30-days", "lat": 35.45050470695943, "lon": -146.97456316983005, "alt_km": 439.2167441547681, "timestamp": "2025-12-10T18:56:58.832025+00:00", "meta": {"OBJECT_NAME": "STARLINK-35643", "OBJECT_ID": "2025-262A", "EPOCH": "2025-12-10T12:00:02.998944", "MEAN_MOTION": 15.40650213, "ECCENTRICITY": 0.0001161, "INCLINATION": 42.9997, "RA_OF_ASC_NODE": 84.5182, "ARG_OF_PERICENTER": 280.2542, "MEAN_ANOMALY": 33.6317, "EPHEMERIS_TYPE": 0, "CLASSIFICATION_TYPE": "U", "NORAD_CAT_ID": 66456, "ELEMENT_SET_NO": 999, "REV_AT_EPOCH": 527, "BSTAR": 0.00098509, "MEAN_MOTION_DOT": 0.00040999, "MEAN_MOTION_DDOT": 0}, "tle": {"line1": "1 66456U 25262A   25344.50003471  .00040999  00000+0  98509-3 0  9996", "line2": "2 66456  42.9997  84.5182 0001161 280.2542  33.6317 15.40650213  5273"}}, "geometry": {"type": "Point", "coordinates": [-146.97456316983005, 35.45050470695943]}}, {"type": "Feature", "properties": {"norad_id": 66457, "name": "STARLINK-35466", "group": "last-30-days", "lat": 22.037074921441175, "lon": -122.95775092451218, "alt_km": 441.23274621890687, "timestamp": "2025-12-10T18:56:58.832036+00:00", "meta": {"OBJECT_NAME": "STARLINK-35466", "OBJECT_ID": "2025-262B", "EPOCH": "2025-12-10T12:00:02.998944", "MEAN_MOTION": 15.40649595, "ECCENTRICITY": 9.88e-05, "INCLINATION": 42.9999, "RA_OF_ASC_NODE": 84.457, "ARG_OF_PERICENTER": 294.8809, "MEAN_ANOMALY": 43.8856, "EPHEMERIS_TYPE": 0, "CLASSIFICATION_TYPE": "U", "NORAD_CAT_ID": 66457, "ELEMENT_SET_NO": 999, "REV_AT_EPOCH": 527, "BSTAR": 0.00082026, "MEAN_MOTION_DOT": 0.00034056, "MEAN_MOTION_DDOT": 0}, "tle": {"line1": "1 66457U 25262B   25344.50003471  .00034056  00000+0  82026-3 0  9991", "line2": "2 66457  42.9999  84.4570 0000988 294.8809  43.8856 15.40649595  5271"}}, "geometry": {"type": "Point", "coordinates": [-122.95775092451218, 22.037074921441175]}}, {"type": "Feature", "properties": {"norad_id": 66458, "name": "STARLINK-35684", "group": "last-30-days", "lat": 29.330626777412302, "lon": -134.2633916088801, "alt_km": 440.2542541385337, "timestamp": "2025-12-10T18:56:58.832046+00:00", "meta": {"OBJECT_NAME": "STARLINK-35684", "OBJECT_ID": "2025-262C", "EPOCH": "2025-12-10T12:00:02.998944", "MEAN_MOTION": 15.40661913, "ECCENTRICITY": 0.0001307, "INCLINATION": 42.9998, "RA_OF_ASC_NODE": 84.4884, "ARG_OF_PERICENTER": 292.8907, "MEAN_ANOMALY": 33.33, "EPHEMERIS_TYPE": 0, "CLASSIFICATION_TYPE": "U", "NORAD_CAT_ID": 66458, "ELEMENT_SET_NO": 999, "REV_AT_EPOCH": 527, "BSTAR": 0.0010944, "MEAN_MOTION_DOT": 0.00045629, "MEAN_MOTION_DDOT": 0}, "tle": {"line1": "1 66458U 25262C   25344.50003471  .00045629  00000+0  10944-2 0  9999", "line2": "2 66458  42.9998  84.4884 0001307 292.8907  33.3300 15.40661913  5278"}}, "geometry": {"type": "Point", "coordinates": [-134.2633916088801, 29.330626777412302]}}, {"type": "Feature", "properties": {"norad_id": 66459, "name": "STARLINK-35449", "group": "last-30-days", "lat": 14.107331295162277, "lon": -112.88871301327691, "alt_km": 442.139070664427, "timestamp": "2025-12-10T18:56:58.832057+00:00", "meta": {"OBJECT_NAME": "STARLINK-35449", "OBJECT_ID": "2025-262D", "EPOCH": "2025-12-10T12:00:02.998944", "MEAN_MOTION": 15.40654738, "ECCENTRICITY": 0.0001212, "INCLINATION": 42.9999, "RA_OF_ASC_NODE": 84.4264, "ARG_OF_PERICENTER": 265.6199, "MEAN_ANOMALY": 85.5832, "EPHEMERIS_TYPE": 0, "CLASSIFICATION_TYPE": "U", "NORAD_CAT_ID": 66459, "ELEMENT_SET_NO": 999, "REV_AT_EPOCH": 527, "BSTAR": 0.00083681, "MEAN_MOTION_DOT": 0.00034759, "MEAN_MOTION_DDOT": 0}, "tle": {"line1": "1 66459U 25262D   25344.50003471  .00034759  00000+0  83681-3 0  9991", "line2": "2 66459  42.9999  84.4264 0001212 265.6199  85.5832 15.40654738  5274"}}, "geometry": {"type": "Point", "coordinates": [-112.88871301327691, 14.107331295162277]}}, {"type": "Feature", "properties": {"norad_id": 66460, "name": "STARLINK-35424", "group": "last-30-days", "lat": 5.774591585685594, "lon": -103.50306994612205, "alt_km": 443.14812236540547, "timestamp": "2025-12-10T18:56:58.832069+00:00", "meta": {"OBJECT_NAME": "STARLINK-35424", "OBJECT_ID": "2025-262E", "EPOCH": "2025-12-10T12:00:02.998944", "MEAN_MOTION": 15.40739677, "ECCENTRICITY": 0.0001346, "INCLINATION": 42.9998, "RA_OF_ASC_NODE": 84.3961, "ARG_OF_PERICENTER": 263.0889, "MEAN_ANOMALY": 100.5249, "EPHEMERIS_TYPE": 0, "CLASSIFICATION_TYPE": "U", "NORAD_CAT_ID": 66460, "ELEMENT_SET_NO": 999, "REV_AT_EPOCH": 527, "BSTAR": -0.0024909, "MEAN_MOTION_DOT": -0.00103095, "MEAN_MOTION_DDOT": 0}, "tle": {"line1": "1 66460U 25262E   25344.50003471 -.00103095  00000+0 -24909-2 0  9992", "line2": "2 66460  42.9998  84.3961 0001346 263.0889 100.5249 15.40739677  5270"}}, "geometry": {"type": "Point", "coordinates": [-103.50306994612205, 5.774591585685594]}}, {"type": "Feature", "properties": {"norad_id": 66461, "name": "STARLINK-35132", "group": "last-30-days", "lat": -2.6820564446219364, "lon": -94.42114210022396, "alt_km": 444.3457694141107, "timestamp": "2025-12-10T18:56:58.832080+00:00", "meta": {"OBJECT_NAME": "STARLINK-35132", "OBJECT_ID": "2025-262F", "EPOCH": "2025-12-10T12:00:02.998944", "MEAN_MOTION": 15.4077719, "ECCENTRICITY": 0.0001646, "INCLINATION": 43.0001, "RA_OF_ASC_NODE": 84.3663, "ARG_OF_PERICENTER": 279.0855, "MEAN_ANOMALY": 96.9302, "EPHEMERIS_TYPE": 0, "CLASSIFICATION_TYPE": "U", "NORAD_CAT_ID": 66461, "ELEMENT_SET_NO": 999, "REV_AT_EPOCH": 527, "BSTAR": -0.003835, "MEAN_MOTION_DOT": -0.00157646, "MEAN_MOTION_DDOT": 0}, "tle": {"line1": "1 66461U 25262F   25344.50003471 -.00157646  00000+0 -38350-2 0  9999", "line2": "2 66461  43.0001  84.3663 0001646 279.0855  96.9302 15.40777190  5270"}}, "geometry": {"type": "Point", "coordinates": [-94.42114210022396, -2.6820564446219364]}}, {"type": "Feature", "properties": {"norad_id": 66462, "name": "STARLINK-35499", "group": "last-30-days", "lat": -11.075404362289985, "lon": -85.20873357587483, "alt_km": 445.0267246469966, "timestamp": "2025-12-10T18:56:58.832090+00:00", "meta": {"OBJECT_NAME": "STARLINK-35499", "OBJECT_ID": "2025-262G", "EPOCH": "2025-12-10T12:00:02.998944", "MEAN_MOTION": 15.40645292, "ECCENTRICITY": 0.0001255, "INCLINATION": 43.0003, "RA_OF_ASC_NODE": 84.3342, "ARG_OF_PERICENTER": 270.6315, "MEAN_ANOMALY": 117.8899, "EPHEMERIS_TYPE": 0, "CLASSIFICATION_TYPE": "U", "NORAD_CAT_ID": 66462, "ELEMENT_SET_NO": 999, "REV_AT_EPOCH": 527, "BSTAR": 0.00092496, "MEAN_MOTION_DOT": 0.00038459, "MEAN_MOTION_DDOT": 0}, "tle": {"line1": "1 66462U 25262G   25344.50003471  .00038459  00000+0  92496-3 0  9990", "line2": "2 66462  43.0003  84.3342 0001255 270.6315 117.8899 15.40645292  5272"}}, "geometry": {"type": "Point", "coordinates": [-85.20873357587483, -11.075404362289985]}}, {"type": "Feature", "properties": {"norad_id": 66463, "name": "STARLINK-35463", "group": "last-30-days", "lat": -26.721608984838436, "lon": -64.69508949768874, "alt_km": 445.93706725530683, "timestamp": "2025-12-10T18:56:58.832101+00:00", "meta": {"OBJECT_NAME": "STARLINK-35463", "OBJECT_ID": "2025-262H", "EPOCH": "2025-12-10T12:00:02.998944", "MEAN_MOTION": 15.40949693, "ECCENTRICITY": 0.0001503, "INCLINATION": 43.0003, "RA_OF_ASC_NODE": 84.2748, "ARG_OF_PERICENTER": 271.998, "MEAN_ANOMALY": 141.2724, "EPHEMERIS_TYPE": 0, "CLASSIFICATION_TYPE": "U", "NORAD_CAT_ID": 66463, "ELEMENT_SET_NO": 999, "REV_AT_EPOCH": 527, "BSTAR": -0.010973, "MEAN_MOTION_DOT": -0.00436995, "MEAN_MOTION_DDOT": 0}, "tle": {"line1": "1 66463U 25262H   25344.50003471 -.00436995  00000+0 -10973-1 0  9998", "line2": "2 66463  43.0003  84.2748 0001503 271.9980 141.2724 15.40949693  5270"}}, "geometry": {"type": "Point", "coordinates": [-64.69508949768874, -26.721608984838436]}}, {"type": "Feature", "properties": {"norad_id": 66464, "name": "STARLINK-35435", "group": "last-30-days", "lat": -19.139040314665607, "lon": -75.4986383357139, "alt_km": 445.7851653063399, "timestamp": "2025-12-10T18:56:58.832111+00:00", "meta": {"OBJECT_NAME": "STARLINK-35435", "OBJECT_ID": "2025-262J", "EPOCH": "2025-12-10T12:00:02.998944", "MEAN_MOTION": 15.40652008, "ECCENTRICITY": 0.0001944, "INCLINATION": 43.0004, "RA_OF_ASC_NODE": 84.3053, "ARG_OF_PERICENTER": 289.0517, "MEAN_ANOMALY": 111.8497, "EPHEMERIS_TYPE": 0, "CLASSIFICATION_TYPE": "U", "NORAD_CAT_ID": 66464, "ELEMENT_SET_NO": 999, "REV_AT_EPOCH": 527, "BSTAR": 0.001405, "MEAN_MOTION_DOT": 0.00058746, "MEAN_MOTION_DDOT": 0}, "tle": {"line1": "1 66464U 25262J   25344.50003471  .00058746  00000+0  14050-2 0  9992", "line2": "2 66464  43.0004  84.3053 0001944 289.0517 111.8497 15.40652008  5278"}}, "geometry": {"type": "Point", "coordinates": [-75.4986383357139, -19.139040314665607]}}]}